{
  "type": "FeatureCollection",
  "features": [
    {
      "type": "Feature",
      "properties": {
        "norad_id": 66397,
        "name": "STARLINK-35510",
        "group": "last-30-days",
        "lat": 51.69087885347171,
        "lon": 1.8049093598601214,
        "alt_km": 437.4094686142125,
        "timestamp": "2025-12-07T05:38:08.683238+00:00",
        "meta_object_name": "STARLINK-35510",
        "meta_object_id": "2025-257T",
        "meta_epoch": "2025-12-06T14:00:01.999872",
        "meta_mean_motion": 15.43196158,
        "meta_eccentricity": 0.00010478,
        "meta_inclination": 53.1594,
        "meta_ra_of_asc_node": 293.2597,
        "meta_arg_of_pericenter": 84.292,
        "meta_mean_anomaly": 336.6187,
        "meta_ephemeris_type": 0,
        "meta_classification_type": "U",
        "meta_norad_cat_id": 66397,
        "meta_element_set_no": 999,
        "meta_rev_at_epoch": 550,
        "meta_bstar": -0.051411688,
        "meta_mean_motion_dot": -0.02057867,
        "meta_mean_motion_ddot": 0,
        "tle_line1": "1 66397U 25257T   25340.58335648 -.02057867  00000+0 -51412-1 0  9998",
        "tle_line2": "2 66397  53.1594 293.2597 0001047  84.2920 336.6187 15.43196158  5501"
      },
      "geometry": {
        "type": "Point",
        "coordinates": [
          1.8049093598601214,
          51.69087885347171
        ]
      }
    },
    {
      "type": "Feature",
      "properties": {
        "norad_id": 66398,
        "name": "STARLINK-35642",
        "group": "last-30-days",
        "lat": 49.36172660939232,
        "lon": 49.24368758602913,
        "alt_km": 416.5749829720917,
        "timestamp": "2025-12-07T05:38:08.683249+00:00",
        "meta_object_name": "STARLINK-35642",
        "meta_object_id": "2025-257U",
        "meta_epoch": "2025-12-06T04:22:47.917920",
        "meta_mean_motion": 15.48674632,
        "meta_eccentricity": 9.202e-05,
        "meta_inclination": 53.1592,
        "meta_ra_of_asc_node": 295.1428,
        "meta_arg_of_pericenter": 161.1871,
        "meta_mean_anomaly": 198.9172,
        "meta_ephemeris_type": 0,
        "meta_classification_type": "U",
        "meta_norad_cat_id": 66398,
        "meta_element_set_no": 999,
        "meta_rev_at_epoch": 536,
        "meta_bstar": -0.0089627224,
        "meta_mean_motion_dot": -0.00460233,
        "meta_mean_motion_ddot": 0,
        "tle_line1": "1 66398U 25257U   25340.18249905 -.00460233  00000+0 -89627-2 0  9998",
        "tle_line2": "2 66398  53.1592 295.1428 0000920 161.1871 198.9172 15.48674632  5363"
      },
      "geometry": {
        "type": "Point",
        "coordinates": [
          49.24368758602913,
          49.36172660939232
        ]
      }
    },
    {
      "type": "Feature",
      "properties": {
        "norad_id": 66399,
        "name": "STARLINK-35657",
        "group": "last-30-days",
        "lat": 52.14582668135118,
        "lon": 4.9018489112897825,
        "alt_km": 438.23358354186803,
        "timestamp": "2025-12-07T05:38:08.683259+00:00",
        "meta_object_name": "STARLINK-35657",
        "meta_object_id": "2025-257V",
        "meta_epoch": "2025-12-06T14:00:01.999872",
        "meta_mean_motion": 15.42918804,
        "meta_eccentricity": 8.55e-05,
        "meta_inclination": 53.159,
        "meta_ra_of_asc_node": 293.2545,
        "meta_arg_of_pericenter": 109.999,
        "meta_mean_anomaly": 313.4601,
        "meta_ephemeris_type": 0,
        "meta_classification_type": "U",
        "meta_norad_cat_id": 66399,
        "meta_element_set_no": 999,
        "meta_rev_at_epoch": 550,
        "meta_bstar": -0.050808869,
        "meta_mean_motion_dot": -0.02019289,
        "meta_mean_motion_ddot": 0,
        "tle_line1": "1 66399U 25257V   25340.58335648 -.02019289  00000+0 -50809-1 0  9995",
        "tle_line2": "2 66399  53.1590 293.2545 0000855 109.9990 313.4601 15.42918804  5503"
      },
      "geometry": {
        "type": "Point",
        "coordinates": [
          4.9018489112897825,
          52.14582668135118
        ]
      }
    },
    {
      "type": "Feature",
      "properties": {
        "norad_id": 66400,
        "name": "STARLINK-35667",
        "group": "last-30-days",
        "lat": 44.28056477780247,
        "lon": 63.11373558702754,
        "alt_km": 411.68980444388944,
        "timestamp": "2025-12-07T05:38:08.683269+00:00",
        "meta_object_name": "STARLINK-35667",
        "meta_object_id": "2025-257W",
        "meta_epoch": "2025-12-06T04:21:09.466848",
        "meta_mean_motion": 15.49356007,
        "meta_eccentricity": 0.00018529,
        "meta_inclination": 53.1592,
        "meta_ra_of_asc_node": 295.135,
        "meta_arg_of_pericenter": 118.9172,
        "meta_mean_anomaly": 241.2023,
        "meta_ephemeris_type": 0,
        "meta_classification_type": "U",
        "meta_norad_cat_id": 66400,
        "meta_element_set_no": 999,
        "meta_rev_at_epoch": 536,
        "meta_bstar": -0.00068117353,
        "meta_mean_motion_dot": -0.00038213,
        "meta_mean_motion_ddot": 0,
        "tle_line1": "1 66400U 25257W   25340.18135957 -.00038213  00000+0 -68117-3 0  9994",
        "tle_line2": "2 66400  53.1592 295.1350 0001852 118.9172 241.2023 15.49356007  5361"
      },
      "geometry": {
        "type": "Point",
        "coordinates": [
          63.11373558702754,
          44.28056477780247
        ]
      }
    },
    {
      "type": "Feature",
      "properties": {
        "norad_id": 66401,
        "name": "STARLINK-35668",
        "group": "last-30-days",
        "lat": 45.43716783623426,
        "lon": 60.525676548478806,
        "alt_km": 419.88131155731026,
        "timestamp": "2025-12-07T05:38:08.683280+00:00",
        "meta_object_name": "STARLINK-35668",
        "meta_object_id": "2025-257X",
        "meta_epoch": "2025-12-06T08:00:01.999872",
        "meta_mean_motion": 15.49728436,
        "meta_eccentricity": 0.00015575,
        "meta_inclination": 53.1587,
        "meta_ra_of_asc_node": 294.4065,
        "meta_arg_of_pericenter": 90.2703,
        "meta_mean_anomaly": 39.9269,
        "meta_ephemeris_type": 0,
        "meta_classification_type": "U",
        "meta_norad_cat_id": 66401,
        "meta_element_set_no": 999,
        "meta_rev_at_epoch": 546,
        "meta_bstar": -0.033578695,
        "meta_mean_motion_dot": -0.01694206,
        "meta_mean_motion_ddot": 0,
        "tle_line1": "1 66401U 25257X   25340.33335648 -.01694206  00000+0 -33579-1 0  9994",
        "tle_line2": "2 66401  53.1587 294.4065 0001557  90.2703  39.9269 15.49728436  5469"
      },
      "geometry": {
        "type": "Point",
        "coordinates": [
          60.525676548478806,
          45.43716783623426
        ]
      }
    },
    {
      "type": "Feature",
      "properties": {
        "norad_id": 66402,
        "name": "STARLINK-35644",
        "group": "last-30-days",
        "lat": 42.92894095611157,
        "lon": 65.86969074033344,
        "alt_km": 411.85531645030096,
        "timestamp": "2025-12-07T05:38:08.683291+00:00",
        "meta_object_name": "STARLINK-35644",
        "meta_object_id": "2025-257Y",
        "meta_epoch": "2025-12-06T05:53:33.843840",
        "meta_mean_motion": 15.49361286,
        "meta_eccentricity": 7.923e-05,
        "meta_inclination": 53.1581,
        "meta_ra_of_asc_node": 294.8244,
        "meta_arg_of_pericenter": 85.5717,
        "meta_mean_anomaly": 274.5382,
        "meta_ephemeris_type": 0,
        "meta_classification_type": "U",
        "meta_norad_cat_id": 66402,
        "meta_element_set_no": 999,
        "meta_rev_at_epoch": 537,
        "meta_bstar": 0.0018840832,
        "meta_mean_motion_dot": 0.00105964,
        "meta_mean_motion_ddot": 0,
        "tle_line1": "1 66402U 25257Y   25340.24553060  .00105964  00000+0  18841-2 0  9996",
        "tle_line2": "2 66402  53.1581 294.8244 0000792  85.5717 274.5382 15.49361286  5378"
      },
      "geometry": {
        "type": "Point",
        "coordinates": [
          65.86969074033344,
          42.92894095611157
        ]
      }
    },
    {
      "type": "Feature",
      "properties": {
        "norad_id": 66403,
        "name": "STARLINK-35602",
        "group": "last-30-days",
        "lat": 41.58793372788029,
        "lon": 68.37603970244798,
        "alt_km": 411.17263522122084,
        "timestamp": "2025-12-07T05:38:08.683304+00:00",
        "meta_object_name": "STARLINK-35602",
        "meta_object_id": "2025-257Z",
        "meta_epoch": "2025-12-06T04:20:10.783968",
        "meta_mean_motion": 15.49424028,
        "meta_eccentricity": 0.00014724,
        "meta_inclination": 53.1591,
        "meta_ra_of_asc_node": 295.1307,
        "meta_arg_of_pericenter": 117.2823,
        "meta_mean_anomaly": 242.8336,
        "meta_ephemeris_type": 0,
        "meta_classification_type": "U",
        "meta_norad_cat_id": 66403,
        "meta_element_set_no": 999,
        "meta_rev_at_epoch": 536,
        "meta_bstar": 0.0022222457,
        "meta_mean_motion_dot": 0.0012566,
        "meta_mean_motion_ddot": 0,
        "tle_line1": "1 66403U 25257Z   25340.18068037  .00125660  00000+0  22222-2 0  9998",
        "tle_line2": "2 66403  53.1591 295.1307 0001472 117.2823 242.8336 15.49424028  5361"
      },
      "geometry": {
        "type": "Point",
        "coordinates": [
          68.37603970244798,
          41.58793372788029
        ]
      }
    }
  ]
}